CTC2_L_00395016-03
1 86676U 25375PC  26037.47795139  .00000000  00000+0  00000-0 0  9997
2 86676  50.0000 180.0000 0000000   0.0000   0.0000 12.77881336    16
CTC2_L_00395016-04
1 86677U 25227HD  26037.47795139  .00000000  00000+0  00000-0 0  9994
2 86677  50.0000 180.0000 0000000   0.0000  90.0000 12.77881336    16
CTC2_L_00395017-01
1 86678U 24334DB  26037.47795139  .00000000  00000+0  00000-0 0  9993
2 86678  50.0000 192.0000 0000000   0.0000 192.0000 12.77881336    13
CTC2_L_00395017-02
1 86679U 25825QX  26037.47795139  .00000000  00000+0  00000-0 0  9990
2 86679  50.0000 192.0000 0000000   0.0000 282.0000 12.77881336    14
CTC2_L_00395017-03
1 86680U 22873YE  26037.47795139  .00000000  00000+0  00000-0 0  9992
2 86680  50.0000 192.0000 0000000   0.0000  12.0000 12.77881336    17
CTC2_L_00395017-04
1 86681U 26955MJ  26037.47795139  .00000000  00000+0  00000-0 0  9998
2 86681  50.0000 192.0000 0000000   0.0000 102.0000 12.77881336    18
CTC2_L_00395018-01
1 86682U 22170VD  26037.47795139  .00000000  00000+0  00000-0 0  9994
2 86682  50.0000 204.0000 0000000   0.0000 204.0000 12.77881336    16
CTC2_L_00395018-02
1 86683U 23467YK  26037.47795139  .00000000  00000+0  00000-0 0  9995
2 86683  50.0000 204.0000 0000000   0.0000 294.0000 12.77881336    16
CTC2_L_00395018-03
1 86684U 26947OP  26037.47795139  .00000000  00000+0  00000-0 0  9992
2 86684  50.0000 204.0000 0000000   0.0000  24.0000 12.77881336    18
CTC2_L_00395018-04
1 86685U 23643UT  26037.47795139  .00000000  00000+0  00000-0 0  9993
2 86685  50.0000 204.0000 0000000   0.0000 114.0000 12.77881336    19
CTC2_L_00395019-01
1 86686U 22054KP  26037.47795139  .00000000  00000+0  00000-0 0  9999
2 86686  50.0000 216.0000 0000000   0.0000 216.0000 12.77881336    16
CTC2_L_00395019-02
1 86687U 22815LZ  26037.47795139  .00000000  00000+0  00000-0 0  9995
2 86687  50.0000 216.0000 0000000   0.0000 306.0000 12.77881336    17
CTC2_L_00395019-03
1 86688U 24350PX  26037.47795139  .00000000  00000+0  00000-0 0  9992
2 86688  50.0000 216.0000 0000000   0.0000  36.0000 12.77881336    18
CTC2_L_00395019-04
1 86689U 22802JQ  26037.47795139  .00000000  00000+0  00000-0 0  9993
2 86689  50.0000 216.0000 0000000   0.0000 126.0000 12.77881336    19
CTC2_L_00395020-01
1 86690U 22336SK  26037.47795139  .00000000  00000+0  00000-0 0  9997
2 86690  50.0000 228.0000 0000000   0.0000 228.0000 12.77881336    17
CTC2_L_00395020-02
1 86691U 24059KI  26037.47795139  .00000000  00000+0  00000-0 0  9992
2 86691  50.0000 228.0000 0000000   0.0000 318.0000 12.77881336    18
CTC2_L_00395020-03
1 86692U 22661IT  26037.47795139  .00000000  00000+0  00000-0 0  9990
2 86692  50.0000 228.0000 0000000   0.0000  48.0000 12.77881336    19
CTC2_L_00395020-04
1 86693U 25469EC  26037.47795139  .00000000  00000+0  00000-0 0  9990
2 86693  50.0000 228.0000 0000000   0.0000 138.0000 12.77881336    10
CTC2_L_00395021-01
1 86694U 25801CS  26037.47795139  .00000000  00000+0  00000-0 0  9991
2 86694  50.0000 240.0000 0000000   0.0000 240.0000 12.77881336    19
CTC2_L_00395021-02
1 86695U 23182MN  26037.47795139  .00000000  00000+0  00000-0 0  9992
2 86695  50.0000 240.0000 0000000   0.0000 330.0000 12.77881336    10
CTC2_L_00395021-03
1 86696U 26704YF  26037.47795139  .00000000  00000+0  00000-0 0  9996
2 86696  50.0000 240.0000 0000000   0.0000  60.0000 12.77881336    11
CTC2_L_00395021-04
1 86697U 22414EJ  26037.47795139  .00000000  00000+0  00000-0 0  9991
2 86697  50.0000 240.0000 0000000   0.0000 150.0000 12.77881336    12
CTC2_L_00395022-01
1 86698U 25623MT  26037.47795139  .00000000  00000+0  00000-0 0  9997
2 86698  50.0000 252.0000 0000000   0.0000 252.0000 12.77881336    19
CTC2_L_00395022-02
1 86699U 24754ML  26037.47795139  .00000000  00000+0  00000-0 0  9992
2 86699  50.0000 252.0000 0000000   0.0000 342.0000 12.77881336    10
CTC2_L_00395022-03
1 86700U 24106TV  26037.47795139  .00000000  00000+0  00000-0 0  9996
2 86700  50.0000 252.0000 0000000   0.0000  72.0000 12.77881336    13
CTC2_L_00395022-04
1 86701U 22352WJ  26037.47795139  .00000000  00000+0  00000-0 0  9998
2 86701  50.0000 252.0000 0000000   0.0000 162.0000 12.77881336    14
CTC2_L_00395023-01
1 86702U 23620AV  26037.47795139  .00000000  00000+0  00000-0 0  9998
2 86702  50.0000 264.0000 0000000   0.0000 264.0000 12.77881336    11
CTC2_L_00395023-02
1 86703U 24502VF  26037.47795139  .00000000  00000+0  00000-0 0  9999
2 86703  50.0000 264.0000 0000000   0.0000 354.0000 12.77881336    12
CTC2_L_00395023-03
1 86704U 25030RY  26037.47795139  .00000000  00000+0  00000-0 0  9997
2 86704  50.0000 264.0000 0000000   0.0000  84.0000 12.77881336    13
CTC2_L_00395023-04
1 86705U 23859ZI  26037.47795139  .00000000  00000+0  00000-0 0  9995
2 86705  50.0000 264.0000 0000000   0.0000 174.0000 12.77881336    14
CTC2_L_00395024-01
1 86706U 25656JI  26037.47795139  .00000000  00000+0  00000-0 0  9993
2 86706  50.0000 276.0000 0000000   0.0000 276.0000 12.77881336    11
CTC2_L_00395024-02
1 86707U 24731FE  26037.47795139  .00000000  00000+0  00000-0 0  9997
2 86707  50.0000 276.0000 0000000   0.0000   6.0000 12.77881336    13
CTC2_L_00395024-03
1 86708U 26998ZO  26037.47795139  .00000000  00000+0  00000-0 0  9995
2 86708  50.0000 276.0000 0000000   0.0000  96.0000 12.77881336    13
CTC2_L_00395024-04
1 86709U 22083TK  26037.47795139  .00000000  00000+0  00000-0 0  9997
2 86709  50.0000 276.0000 0000000   0.0000 186.0000 12.77881336    14
CTC2_L_00395025-01
1 86710U 23393QL  26037.47795139  .00000000  00000+0  00000-0 0  9994
2 86710  50.0000 288.0000 0000000   0.0000 288.0000 12.77881336    12
CTC2_L_00395025-02
1 86711U 23310RC  26037.47795139  .00000000  00000+0  00000-0 0  9994
2 86711  50.0000 288.0000 0000000   0.0000  18.0000 12.77881336    14
CTC2_L_00395025-03
1 86712U 23189DD  26037.47795139  .00000000  00000+0  00000-0 0  9999
2 86712  50.0000 288.0000 0000000   0.0000 108.0000 12.77881336    15
CTC2_L_00395025-04
1 86713U 25735QE  26037.47795139  .00000000  00000+0  00000-0 0  9999
2 86713  50.0000 288.0000 0000000   0.0000 198.0000 12.77881336    15
CTC2_L_00395026-01
1 86714U 26102OA  26037.47795139  .00000000  00000+0  00000-0 0  9999
2 86714  50.0000 300.0000 0000000   0.0000 300.0000 12.77881336    16
CTC2_L_00395026-02
1 86715U 24376CU  26037.47795139  .00000000  00000+0  00000-0 0  9991
2 86715  50.0000 300.0000 0000000   0.0000  30.0000 12.77881336    17
CTC2_L_00395026-03
1 86716U 22916OS  26037.47795139  .00000000  00000+0  00000-0 0  9990
2 86716  50.0000 300.0000 0000000   0.0000 120.0000 12.77881336    18
CTC2_L_00395026-04
1 86717U 26674YT  26037.47795139  .00000000  00000+0  00000-0 0  9996
2 86717  50.0000 300.0000 0000000   0.0000 210.0000 12.77881336    19
CTC2_L_00395027-01
1 86718U 24492JX  26037.47795139  .00000000  00000+0  00000-0 0  9993
2 86718  50.0000 312.0000 0000000   0.0000 312.0000 12.77881336    16
CTC2_L_00395027-02
1 86719U 26388WV  26037.47795139  .00000000  00000+0  00000-0 0  9990
2 86719  50.0000 312.0000 0000000   0.0000  42.0000 12.77881336    17
CTC2_L_00395027-03
1 86720U 25833KM  26037.47795139  .00000000  00000+0  00000-0 0  9996
2 86720  50.0000 312.0000 0000000   0.0000 132.0000 12.77881336    19
CTC2_L_00395027-04
1 86721U 26632JA  26037.47795139  .00000000  00000+0  00000-0 0  9995
2 86721  50.0000 312.0000 0000000   0.0000 222.0000 12.77881336    10
CTC2_L_00395028-01
1 86722U 26082KS  26037.47795139  .00000000  00000+0  00000-0 0  9995
2 86722  50.0000 324.0000 0000000   0.0000 324.0000 12.77881336    17
CTC2_L_00395028-02
1 86723U 23157PS  26037.47795139  .00000000  00000+0  00000-0 0  9996
2 86723  50.0000 324.0000 0000000   0.0000  54.0000 12.77881336    18
CTC2_L_00395028-03
1 86724U 22488UL  26037.47795139  .00000000  00000+0  00000-0 0  9993
2 86724  50.0000 324.0000 0000000   0.0000 144.0000 12.77881336    19
CTC2_L_00395028-04
1 86725U 25376XX  26037.47795139  .00000000  00000+0  00000-0 0  9993
2 86725  50.0000 324.0000 0000000   0.0000 234.0000 12.77881336    10
CTC2_L_00395029-01
1 86726U 22836CY  26037.47795139  .00000000  00000+0  00000-0 0  9992
2 86726  50.0000 336.0000 0000000   0.0000 336.0000 12.77881336    17
CTC2_L_00395029-02
1 86727U 25739FS  26037.47795139  .00000000  00000+0  00000-0 0  9998
2 86727  50.0000 336.0000 0000000   0.0000  66.0000 12.77881336    18
CTC2_L_00395029-03
1 86728U 25232T   26037.47795139  .00000000  00000+0  00000-0 0  9997
2 86728  50.0000 336.0000 0000000   0.0000 156.0000 12.77881336    19
CTC2_L_00395029-04
1 86729U 26396JR  26037.47795139  .00000000  00000+0  00000-0 0  9990
2 86729  50.0000 336.0000 0000000   0.0000 246.0000 12.77881336    10
CTC2_L_00395030-01
1 86730U 22055OZ  26037.47795139  .00000000  00000+0  00000-0 0  9990
2 86730  50.0000 348.0000 0000000   0.0000 348.0000 12.77881336    18
CTC2_L_00395030-02
1 86731U 22855DE  26037.47795139  .00000000  00000+0  00000-0 0  9999
2 86731  50.0000 348.0000 0000000   0.0000  78.0000 12.77881336    19
CTC2_L_00395030-03
1 86732U 24567C   26037.47795139  .00000000  00000+0  00000-0 0  9992
2 86732  50.0000 348.0000 0000000   0.0000 168.0000 12.77881336    10
CTC2_L_00395030-04
1 86733U 26666FG  26037.47795139  .00000000  00000+0  00000-0 0  9995
2 86733  50.0000 348.0000 0000000   0.0000 258.0000 12.77881336    11
